[
    {
        "Altitude(m)": 607897.6321124187,
        "Argument of Periapsis(deg)": 0.0,
        "Eccentricity": 0.0,
        "Inclination(deg)": 60.0,
        "Latitude(deg)": -14.293033060637384,
        "Longitude(deg)": -18.38121815932863,
        "Mean Anomaly(deg)": -16.363600000000037,
        "RAAN(deg)": 90.0,
        "Satellite Name": "Test1 417",
        "Satellite Number": 417,
        "Semi-Major Axis(m)": 6980739.136638005,
        "Time(s)": 0
    },
    {
        "Altitude(m)": 607750.8327056201,
        "Argument of Periapsis(deg)": 0.00010418945913296404,
        "Eccentricity": 0.0,
        "Inclination(deg)": 60.0,
        "Latitude(deg)": -13.75887393313163,
        "Longitude(deg)": -18.094150152661136,
        "Mean Anomaly(deg)": -15.743493854538197,
        "RAAN(deg)": 89.99957995086027,
        "Satellite Name": "Test1 417",
        "Satellite Number": 417,
        "Semi-Major Axis(m)": 6980739.136638005,
        "Time(s)": 10
    },
    {
        "Altitude(m)": 607606.5575832912,
        "Argument of Periapsis(deg)": 0.0002083789182659281,
        "Eccentricity": 0.0,
        "Inclination(deg)": 60.0,
        "Latitude(deg)": -13.224240058604607,
        "Longitude(deg)": -17.808558552869258,
        "Mean Anomaly(deg)": -15.123387709076408,
        "RAAN(deg)": 89.99915990172052,
        "Satellite Name": "Test1 417",
        "Satellite Number": 417,
        "Semi-Major Axis(m)": 6980739.136638005,
        "Time(s)": 20
    },
    {
        "Altitude(m)": 607464.8511178781,
        "Argument of Periapsis(deg)": 0.00031256837739889213,
        "Eccentricity": 0.0,
        "Inclination(deg)": 60.0,
        "Latitude(deg)": -12.6891517414978,
        "Longitude(deg)": -17.52437868054153,
        "Mean Anomaly(deg)": -14.503281563614516,
        "RAAN(deg)": 89.99873985258078,
        "Satellite Name": "Test1 417",
        "Satellite Number": 417,
        "Semi-Major Axis(m)": 6980739.136638005,
        "Time(s)": 30
    },
    {
        "Altitude(m)": 607325.7564047227,
        "Argument of Periapsis(deg)": 0.0004167578365318562,
        "Eccentricity": 0.0,
        "Inclination(deg)": 60.0,
        "Latitude(deg)": -12.15362901370537,
        "Longitude(deg)": -17.241546198927146,
        "Mean Anomaly(deg)": -13.883175418152726,
        "RAAN(deg)": 89.99831980344103,
        "Satellite Name": "Test1 417",
        "Satellite Number": 417,
        "Semi-Major Axis(m)": 6980739.136638005,
        "Time(s)": 40
    },
    {
        "Altitude(m)": 607189.3152437736,
        "Argument of Periapsis(deg)": 0.0005209472956648203,
        "Eccentricity": 0.0,
        "Inclination(deg)": 60.0,
        "Latitude(deg)": -11.617691648516658,
        "Longitude(deg)": -16.959998082401707,
        "Mean Anomaly(deg)": -13.263069272690887,
        "RAAN(deg)": 89.9978997543013,
        "Satellite Name": "Test1 417",
        "Satellite Number": 417,
        "Semi-Major Axis(m)": 6980739.136638005,
        "Time(s)": 50
    },
    {
        "Altitude(m)": 607055.5681218804,
        "Argument of Periapsis(deg)": 0.0006251367547977843,
        "Eccentricity": 0.0,
        "Inclination(deg)": 60.0,
        "Latitude(deg)": -11.081359174201854,
        "Longitude(deg)": -16.679672072736814,
        "Mean Anomaly(deg)": -12.642963127229047,
        "RAAN(deg)": 89.99747970516154,
        "Satellite Name": "Test1 417",
        "Satellite Number": 417,
        "Semi-Major Axis(m)": 6980739.136638005,
        "Time(s)": 60
    },
    {
        "Altitude(m)": 606924.5541957394,
        "Argument of Periapsis(deg)": 0.0007293262139307483,
        "Eccentricity": 0.0,
        "Inclination(deg)": 60.0,
        "Latitude(deg)": -10.544650887260428,
        "Longitude(deg)": -16.40050613601626,
        "Mean Anomaly(deg)": -12.022856981767207,
        "RAAN(deg)": 89.9970596560218,
        "Satellite Name": "Test1 417",
        "Satellite Number": 417,
        "Semi-Major Axis(m)": 6980739.136638005,
        "Time(s)": 70
    },
    {
        "Altitude(m)": 606796.3112755016,
        "Argument of Periapsis(deg)": 0.0008335156730637124,
        "Eccentricity": 0.0,
        "Inclination(deg)": 60.0,
        "Latitude(deg)": -10.007585865354345,
        "Longitude(deg)": -16.12243943304474,
        "Mean Anomaly(deg)": -11.402750836305417,
        "RAAN(deg)": 89.99663960688206,
        "Satellite Name": "Test1 417",
        "Satellite Number": 417,
        "Semi-Major Axis(m)": 6980739.136638005,
        "Time(s)": 80
    },
    {
        "Altitude(m)": 606670.8758089996,
        "Argument of Periapsis(deg)": 0.0009377051321966765,
        "Eccentricity": 0.0,
        "Inclination(deg)": 60.0,
        "Latitude(deg)": -9.470182979938226,
        "Longitude(deg)": -15.845411777472792,
        "Mean Anomaly(deg)": -10.782644690843576,
        "RAAN(deg)": 89.99621955774232,
        "Satellite Name": "Test1 417",
        "Satellite Number": 417,
        "Semi-Major Axis(m)": 6980739.136638005,
        "Time(s)": 90
    },
    {
        "Altitude(m)": 606548.2828666779,
        "Argument of Periapsis(deg)": 0.0010418945913296407,
        "Eccentricity": 0.0,
        "Inclination(deg)": 60.0,
        "Latitude(deg)": -8.932460908607238,
        "Longitude(deg)": -15.569363094481877,
        "Mean Anomaly(deg)": -10.162538545381723,
        "RAAN(deg)": 89.99579950860257,
        "Satellite Name": "Test1 417",
        "Satellite Number": 417,
        "Semi-Major Axis(m)": 6980739.136638005,
        "Time(s)": 100
    },
    {
        "Altitude(m)": 606428.5661271589,
        "Argument of Periapsis(deg)": 0.0011460840504626045,
        "Eccentricity": 0.0,
        "Inclination(deg)": 60.0,
        "Latitude(deg)": -8.394438147181509,
        "Longitude(deg)": -15.294234392874516,
        "Mean Anomaly(deg)": -9.542432399919933,
        "RAAN(deg)": 89.99537945946282,
        "Satellite Name": "Test1 417",
        "Satellite Number": 417,
        "Semi-Major Axis(m)": 6980739.136638005,
        "Time(s)": 110
    },
    {
        "Altitude(m)": 606311.7578635362,
        "Argument of Periapsis(deg)": 0.0012502735095955685,
        "Eccentricity": 0.0,
        "Inclination(deg)": 60.0,
        "Latitude(deg)": -7.856133021538739,
        "Longitude(deg)": -15.0199672247923,
        "Mean Anomaly(deg)": -8.922326254458042,
        "RAAN(deg)": 89.99495941032309,
        "Satellite Name": "Test1 417",
        "Satellite Number": 417,
        "Semi-Major Axis(m)": 6980739.136638005,
        "Time(s)": 120
    },
    {
        "Altitude(m)": 606197.8889302915,
        "Argument of Periapsis(deg)": 0.0013544629687285324,
        "Eccentricity": 0.0,
        "Inclination(deg)": 60.0,
        "Latitude(deg)": -7.317563699214831,
        "Longitude(deg)": -14.746503145907186,
        "Mean Anomaly(deg)": -8.302220108996252,
        "RAAN(deg)": 89.99453936118334,
        "Satellite Name": "Test1 417",
        "Satellite Number": 417,
        "Semi-Major Axis(m)": 6980739.136638005,
        "Time(s)": 130
    },
    {
        "Altitude(m)": 606086.9887509722,
        "Argument of Periapsis(deg)": 0.0014586524278614966,
        "Eccentricity": 0.0,
        "Inclination(deg)": 60.0,
        "Latitude(deg)": -6.778748200789115,
        "Longitude(deg)": -14.473784688928387,
        "Mean Anomaly(deg)": -7.6821139635344124,
        "RAAN(deg)": 89.9941193120436,
        "Satellite Name": "Test1 417",
        "Satellite Number": 417,
        "Semi-Major Axis(m)": 6980739.136638005,
        "Time(s)": 140
    },
    {
        "Altitude(m)": 605979.085306517,
        "Argument of Periapsis(deg)": 0.0015628418869944607,
        "Eccentricity": 0.0,
        "Inclination(deg)": 60.0,
        "Latitude(deg)": -6.239704411066714,
        "Longitude(deg)": -14.201754824650491,
        "Mean Anomaly(deg)": -7.062007818072572,
        "RAAN(deg)": 89.99369926290386,
        "Satellite Name": "Test1 417",
        "Satellite Number": 417,
        "Semi-Major Axis(m)": 6980739.136638005,
        "Time(s)": 150
    },
    {
        "Altitude(m)": 605874.2051243347,
        "Argument of Periapsis(deg)": 0.0016670313461274247,
        "Eccentricity": 0.0,
        "Inclination(deg)": 60.0,
        "Latitude(deg)": -5.7004500900743,
        "Longitude(deg)": -13.930356423385636,
        "Mean Anomaly(deg)": -6.441901672610732,
        "RAAN(deg)": 89.99327921376411,
        "Satellite Name": "Test1 417",
        "Satellite Number": 417,
        "Semi-Major Axis(m)": 6980739.136638005,
        "Time(s)": 160
    },
    {
        "Altitude(m)": 605772.3732680386,
        "Argument of Periapsis(deg)": 0.0017712208052603888,
        "Eccentricity": 0.0,
        "Inclination(deg)": 60.0,
        "Latitude(deg)": -5.161002883887694,
        "Longitude(deg)": -13.659533229624575,
        "Mean Anomaly(deg)": -5.821795527148942,
        "RAAN(deg)": 89.99285916462438,
        "Satellite Name": "Test1 417",
        "Satellite Number": 417,
        "Semi-Major Axis(m)": 6980739.136638005,
        "Time(s)": 170
    },
    {
        "Altitude(m)": 605673.6133279706,
        "Argument of Periapsis(deg)": 0.001875410264393353,
        "Eccentricity": 0.0,
        "Inclination(deg)": 60.0,
        "Latitude(deg)": -4.621380335300331,
        "Longitude(deg)": -13.389229324150206,
        "Mean Anomaly(deg)": -5.201689381687102,
        "RAAN(deg)": 89.99243911548463,
        "Satellite Name": "Test1 417",
        "Satellite Number": 417,
        "Semi-Major Axis(m)": 6980739.136638005,
        "Time(s)": 180
    },
    {
        "Altitude(m)": 605577.9474123988,
        "Argument of Periapsis(deg)": 0.0019795997235263173,
        "Eccentricity": 0.0,
        "Inclination(deg)": 60.0,
        "Latitude(deg)": -4.081599894350414,
        "Longitude(deg)": -13.119388586448054,
        "Mean Anomaly(deg)": -4.581583236225312,
        "RAAN(deg)": 89.9920190663449,
        "Satellite Name": "Test1 417",
        "Satellite Number": 417,
        "Semi-Major Axis(m)": 6980739.136638005,
        "Time(s)": 190
    }
]